{"type":"FeatureCollection","features":[{"type":"Feature","properties":{"name":"Lake Victoria","kind":"lake"},"geometry":{"type":"Polygon","coordinates":[[[33.91181945760195,-1.198823863366083],[33.91380430154011,-1.2000335857903681],[33.915608,-1.198831],[33.948283,-1.18323],[33.963295,-1.172633],[33.992732,-1.138192],[33.990377,-1.128478],[33.980074,-1.115821],[33.975659,-1.105224],[33.992732,-1.100514],[34.016281,-1.101691],[34.023346,-1.100514],[34.028056,-1.095804],[34.03041,-1.088739],[34.033648,-1.082263],[34.040713,-1.079614],[34.071916,-1.059008],[34.075448,-1.048411],[34.072505,-1.046056],[34.0675,-1.043996],[34.064851,-1.035459],[34.072505,-1.025156],[34.087223,-1.022802],[34.09782,-1.018975],[34.092227,-1.003668],[34.079569,-1.01191],[34.063379,-1.015737],[34.048072,-1.01191],[34.037475,-0.997486],[34.058375,-1.002196],[34.066029,-0.996014],[34.071916,-0.97011],[34.117542,-0.999252],[34.133438,-1.003668],[34.133438,-0.997486],[34.124607,-0.977764],[34.127845,-0.953626],[34.139914,-0.911826],[34.150217,-0.898286],[34.169645,-0.886511],[34.183185,-0.871204],[34.174943,-0.846772],[34.165524,-0.841768],[34.119603,-0.826166],[34.078392,-0.797613],[34.071916,-0.795258],[34.071327,-0.776124],[34.0675,-0.748749],[34.057492,-0.728143],[34.037475,-0.730498],[34.047778,-0.641306],[34.054548,-0.627471],[34.062202,-0.624527],[34.072505,-0.616873],[34.081335,-0.607748],[34.085457,-0.599506],[34.082807,-0.58626],[34.075154,-0.57684],[34.065734,-0.568598],[34.057492,-0.558589],[34.063674,-0.555646],[34.077803,-0.554468],[34.085457,-0.551819],[34.101352,-0.534746],[34.10253,-0.532097],[34.13697,-0.53504],[34.150217,-0.531508],[34.161108,-0.517673],[34.174355,-0.450852],[34.189073,-0.422299],[34.22263,-0.415234],[34.219981,-0.418766],[34.21586,-0.42848],[34.244413,-0.429363],[34.284741,-0.465865],[34.311234,-0.476756],[34.307701,-0.469691],[34.304463,-0.460566],[34.304758,-0.452324],[34.311234,-0.44938],[34.318299,-0.453501],[34.326541,-0.470869],[34.331251,-0.476756],[34.347735,-0.479405],[34.360687,-0.472635],[34.365691,-0.459094],[34.359215,-0.442021],[34.374522,-0.441432],[34.386002,-0.44467],[34.395422,-0.450852],[34.403959,-0.459977],[34.409551,-0.468514],[34.418677,-0.489119],[34.420443,-0.497362],[34.415733,-0.504426],[34.40808,-0.513552],[34.407491,-0.521794],[34.423975,-0.525032],[34.436339,-0.520911],[34.460771,-0.501483],[34.472251,-0.497362],[34.4749,-0.493829],[34.503159,-0.476756],[34.505514,-0.467925],[34.50522,-0.45409],[34.499921,-0.441432],[34.456944,-0.424065],[34.449291,-0.396983],[34.450762,-0.367253],[34.448702,-0.346353],[34.467836,-0.337522],[34.497861,-0.32928],[34.527003,-0.32457],[34.544076,-0.325747],[34.554379,-0.318977],[34.562326,-0.318388],[34.569097,-0.322215],[34.575867,-0.328985],[34.586759,-0.335756],[34.595884,-0.335461],[34.604715,-0.332812],[34.612957,-0.331929],[34.658289,-0.344881],[34.678306,-0.346353],[34.740417,-0.340171],[34.753663,-0.335756],[34.754252,-0.320449],[34.748365,-0.300726],[34.749542,-0.287186],[34.770736,-0.291307],[34.782805,-0.286891],[34.809298,-0.306319],[34.82902,-0.312207],[34.837851,-0.308969],[34.84315,-0.301609],[34.846388,-0.294545],[34.849331,-0.291307],[34.85463,-0.28748],[34.846977,-0.279532],[34.836674,-0.272467],[34.832847,-0.27129],[34.798701,-0.206235],[34.795168,-0.195638],[34.781628,-0.190634],[34.768087,-0.179154],[34.756901,-0.165613],[34.750131,-0.154427],[34.74336,-0.162081],[34.731291,-0.137943],[34.730997,-0.123814],[34.735413,-0.109684],[34.73659,-0.085841],[34.722755,-0.091139],[34.674479,-0.089667],[34.669769,-0.098793],[34.658878,-0.108801],[34.646515,-0.117043],[34.623849,-0.123519],[34.600299,-0.137354],[34.564093,-0.142653],[34.548491,-0.149423],[34.534067,-0.159432],[34.520821,-0.171795],[34.505514,-0.18092],[34.491385,-0.179743],[34.461654,-0.168263],[34.446641,-0.168263],[34.406902,-0.182686],[34.377466,-0.178565],[34.359804,-0.179448],[34.34538,-0.188868],[34.341553,-0.203881],[34.346263,-0.219776],[34.357449,-0.228902],[34.372756,-0.223309],[34.383059,-0.244208],[34.388357,-0.265403],[34.386885,-0.284831],[34.376288,-0.301904],[34.325363,-0.341349],[34.318299,-0.35695],[34.313883,-0.373729],[34.302992,-0.390507],[34.287979,-0.396395],[34.270906,-0.381088],[34.272083,-0.376672],[34.276205,-0.36843],[34.278854,-0.358127],[34.277088,-0.346353],[34.272083,-0.340466],[34.262664,-0.334284],[34.252067,-0.328691],[34.243236,-0.325747],[34.253833,-0.314856],[34.256776,-0.305142],[34.251184,-0.29896],[34.236465,-0.298666],[34.253244,-0.26452],[34.249123,-0.252156],[34.229401,-0.237144],[34.195843,-0.221248],[34.184952,-0.208885],[34.187895,-0.188868],[34.158165,-0.191223],[34.122252,-0.185336],[34.093993,-0.168851],[34.085457,-0.140298],[34.091049,-0.135588],[34.115482,-0.12293],[34.12343,-0.120576],[34.137853,-0.117338],[34.138442,-0.11145],[34.128728,-0.106446],[34.112832,-0.10674],[34.130789,-0.079659],[34.13491,-0.064941],[34.12343,-0.058465],[34.094582,-0.059348],[34.07692,-0.063469],[34.064851,-0.072594],[34.071916,-0.072594],[34.068383,-0.081131],[34.066029,-0.088784],[34.064851,-0.096732],[34.064851,-0.10674],[34.057198,-0.101736],[34.055137,-0.096732],[34.054548,-0.091139],[34.05131,-0.085841],[34.055137,-0.087901],[34.043657,-0.072594],[34.038947,-0.074655],[34.027172,-0.074949],[34.020696,-0.070534],[34.030116,-0.058465],[34.030116,-0.052283],[34.024523,-0.048162],[34.018047,-0.045807],[33.999797,-0.04463],[33.99597,-0.040508],[33.99597,-0.010778],[33.989788,0.01807],[33.989199,0.026901],[33.985961,0.038087],[33.977719,0.044857],[33.968888,0.05045],[33.961824,0.057515],[33.958291,0.066346],[33.956231,0.075471],[33.955053,0.095193],[33.957997,0.10579],[33.965356,0.10579],[33.974187,0.102847],[33.982429,0.106085],[33.988316,0.119037],[33.990377,0.134933],[33.989199,0.164369],[33.991554,0.181148],[34.001268,0.212939],[34.003623,0.225597],[34.001857,0.232956],[33.993026,0.251501],[33.989199,0.256799],[33.982723,0.264453],[33.98184,0.26563],[33.980369,0.264453],[33.972126,0.262981],[33.965945,0.256211],[33.920907,0.219121],[33.915903,0.204402],[33.91181945760195,0.20241571578912332],[33.91181945760195,-1.198823863366083]],[[33.945634,-0.472929],[33.946517,-0.464098],[33.950932,-0.454973],[33.955053,-0.44938],[33.964179,-0.444965],[33.99597,-0.442021],[34.03041,-0.432307],[34.045129,-0.437311],[34.05131,-0.459977],[34.05396,-0.467336],[34.059258,-0.470574],[34.061907,-0.474401],[34.057492,-0.482938],[34.048955,-0.490002],[34.026878,-0.497656],[34.017164,-0.504721],[33.998619,-0.49795],[33.971832,-0.480288],[33.951815,-0.476756],[33.945634,-0.472929]],[[34.119603,-0.427892],[34.119603,-0.415234],[34.14639,-0.405226],[34.153749,-0.401105],[34.158459,-0.39404],[34.16729,-0.366958],[34.182008,-0.387269],[34.191133,-0.394629],[34.202025,-0.394923],[34.207323,-0.388741],[34.214094,-0.36843],[34.22263,-0.360188],[34.217332,-0.389036],[34.204085,-0.407286],[34.161108,-0.435839],[34.149922,-0.432601],[34.132849,-0.431718],[34.119603,-0.427892]]]}},{"type":"Feature","properties":{"name":"Lake Turkana","kind":"lake"},"geometry":{"type":"Polygon","coordinates":[[[36.697644,2.769491],[36.709713,2.730341],[36.68793,2.715328],[36.691168,2.683537],[36.699999,2.646153],[36.696172,2.614362],[36.696172,2.620543],[36.693817,2.545186],[36.708241,2.508391],[36.702354,2.486313],[36.690873,2.46718],[36.635827,2.408895],[36.62788,2.40448],[36.621698,2.403303],[36.597266,2.406835],[36.593733,2.408307],[36.581664,2.407424],[36.57195,2.405069],[36.564591,2.400948],[36.558115,2.394472],[36.531917,2.422731],[36.525735,2.464236],[36.52603,2.510451],[36.517787,2.551662],[36.494533,2.591401],[36.476871,2.611712],[36.443313,2.630552],[36.436543,2.654395],[36.436837,2.723571],[36.435954,2.730341],[36.431244,2.741233],[36.417704,2.763899],[36.410344,2.791274],[36.400336,2.813352],[36.380614,2.846321],[36.357653,2.866337],[36.302607,2.902544],[36.261396,2.938456],[36.257864,2.942578],[36.251388,2.972603],[36.247267,2.980551],[36.239613,2.982022],[36.223129,2.967304],[36.21312,2.963183],[36.202818,2.965832],[36.189571,2.979373],[36.182212,2.983494],[36.141884,2.982317],[36.126577,2.987615],[36.12069,3.007926],[36.148066,3.116547],[36.148066,3.128027],[36.144828,3.139802],[36.135997,3.160701],[36.134525,3.172182],[36.136586,3.18219],[36.145711,3.202501],[36.148066,3.213098],[36.142767,3.219869],[36.130404,3.219869],[36.106266,3.216336],[36.072414,3.230466],[36.064761,3.235176],[36.059462,3.239591],[36.052986,3.242829],[36.041506,3.244301],[36.02826,3.252543],[35.996468,3.305823],[35.976746,3.319364],[35.959379,3.327606],[35.947898,3.33938],[35.943189,3.364107],[35.943189,3.528951],[35.939951,3.540725],[35.932886,3.550145],[35.925821,3.552206],[35.922583,3.542492],[35.925527,3.532189],[35.936713,3.508051],[35.935829,3.497454],[35.918168,3.481264],[35.907865,3.495688],[35.902861,3.522475],[35.901683,3.542492],[35.89609,3.561331],[35.882844,3.575166],[35.866948,3.586941],[35.853113,3.600481],[35.841339,3.630212],[35.834274,3.673484],[35.833391,3.719699],[35.840161,3.758261],[35.844871,3.767092],[35.856646,3.782398],[35.860472,3.792407],[35.860767,3.805064],[35.853113,3.83715],[35.853996,3.959017],[35.864593,3.991397],[35.919639,4.105905],[35.922583,4.117974],[35.915224,4.422935],[35.918168,4.437064],[35.926999,4.465029],[35.932003,4.504179],[35.946132,4.551572],[35.94937,4.576887],[35.955552,4.59396],[35.97027,4.617215],[35.988226,4.635171],[36.004122,4.635171],[36.007949,4.623397],[36.007066,4.591017],[36.013836,4.576887],[36.023256,4.565996],[36.029437,4.553927],[36.032675,4.540386],[36.032087,4.525374],[36.037974,4.525374],[36.054164,4.547451],[36.058285,4.560403],[36.038563,4.572766],[36.03032,4.58719],[36.025022,4.60338],[36.024727,4.61486],[36.043272,4.636643],[36.074475,4.643414],[36.106561,4.637821],[36.126872,4.621631],[36.127461,4.630461],[36.122456,4.657543],[36.123634,4.663136],[36.154836,4.664019],[36.167494,4.660192],[36.175442,4.649006],[36.186628,4.624574],[36.18545,4.616038],[36.168377,4.61486],[36.198108,4.547156],[36.203112,4.515659],[36.195753,4.478275],[36.207233,4.46238],[36.208411,4.442657],[36.200463,4.387022],[36.191043,4.367006],[36.188983,4.358175],[36.188394,4.339335],[36.21106,4.301362],[36.214887,4.285761],[36.216064,4.261918],[36.214298,4.241901],[36.214887,4.229832],[36.223129,4.214819],[36.221363,4.21011],[36.218125,4.2054],[36.216064,4.199807],[36.219302,4.193036],[36.226072,4.188621],[36.233137,4.185383],[36.236964,4.182734],[36.241674,4.165661],[36.244617,4.145055],[36.242851,4.123566],[36.224895,4.087948],[36.216064,4.032019],[36.198402,3.979328],[36.192515,3.970497],[36.181624,3.961961],[36.18545,3.942827],[36.219008,3.879833],[36.223129,3.868058],[36.229899,3.831852],[36.233726,3.823315],[36.239319,3.815662],[36.242557,3.808891],[36.244029,3.800649],[36.244323,3.788874],[36.246972,3.779455],[36.253448,3.774156],[36.260513,3.77033],[36.264634,3.765031],[36.265812,3.753551],[36.264045,3.743248],[36.246384,3.694384],[36.240496,3.686141],[36.235787,3.683786],[36.230782,3.682903],[36.219596,3.683198],[36.216653,3.681137],[36.215475,3.67054],[36.21312,3.66583],[36.211354,3.658766],[36.20635,3.540137],[36.216064,3.456537],[36.222834,3.434754],[36.240496,3.393838],[36.244323,3.370877],[36.238141,3.346151],[36.226661,3.334082],[36.22254,3.322013],[36.236964,3.298758],[36.274643,3.263434],[36.291716,3.243123],[36.29878,3.220163],[36.299369,3.208977],[36.30143,3.198969],[36.306728,3.191904],[36.326156,3.186605],[36.331455,3.180424],[36.34058,3.161585],[36.375904,3.123023],[36.380614,3.110071],[36.381791,3.099768],[36.388267,3.076219],[36.386795,3.041484],[36.388267,3.032064],[36.40063,3.010576],[36.532211,2.901661],[36.5746,2.894596],[36.657905,2.898717],[36.689107,2.881055],[36.69941,2.850442],[36.697644,2.769491]]]}},{"type":"Feature","properties":{"name":"Indian Ocean","kind":"ocean"},"geometry":{"type":"Polygon","coordinates":[[[39.2,-4.8],[42.5,-4.8],[42.5,5.2],[39.2,5.2],[39.2,-4.8]]]}}]}